Satellite: BIRD-N
Catalog number: 42824
Epoch time: 17252.604712
Element set: 999
Inclination: 51.640900 deg
RA of node: 336.903700 deg
Eccentricity: 0.000559
Arg of perigee: 226.489100 deg
Mean anomaly: 133.563600 deg
Mean motion: 15.565009 rev/day
Decay rate: 3.847900e-04 rev/day^2
Epoch rev: 99

Satellite: TechnoSat
Catalog number: 42829
Epoch time: 17252.593849
Element set: 999
Inclination: 97.608900 deg
RA of node: 160.235200 deg
Eccentricity: 0.001569
Arg of perigee: 55.909400 deg
Mean anomaly: 304.361100 deg
Mean motion: 14.906616 rev/day
Decay rate: 8.870000e-06 rev/day^2
Epoch rev: 85

Satellite: Mayak
Catalog number: 42830
Epoch time: 17252.793329
Element set: 999
Inclination: 97.609000 deg
RA of node: 160.436200 deg
Eccentricity: 0.001605
Arg of perigee: 52.501600 deg
Mean anomaly: 307.766000 deg
Mean motion: 14.907597 rev/day
Decay rate: 3.448000e-05 rev/day^2
Epoch rev: 855

Satellite: OBJECT MZ
Catalog number: 42910
Epoch time: 17252.447206
Element set: 999
Inclination: 51.639200 deg
RA of node: 338.096600 deg
Eccentricity: 0.000708
Arg of perigee: 247.756500 deg
Mean anomaly: 112.267500 deg
Mean motion: 15.556889 rev/day
Decay rate: 3.168200e-04 rev/day^2
Epoch rev: 355

Satellite: OBJECT NA
Catalog number: 42911
Epoch time: 17252.576345
Element set: 999
Inclination: 51.641000 deg
RA of node: 337.463200 deg
Eccentricity: 0.000652
Arg of perigee: 243.833700 deg
Mean anomaly: 116.198400 deg
Mean motion: 15.556917 rev/day
Decay rate: 3.619400e-04 rev/day^2
Epoch rev: 35

Satellite: OBJECT NB
Catalog number: 42912
Epoch time: 17252.706800
Element set: 999
Inclination: 51.637700 deg
RA of node: 336.824800 deg
Eccentricity: 0.000617
Arg of perigee: 258.829300 deg
Mean anomaly: 101.200400 deg
Mean motion: 15.555155 rev/day
Decay rate: 2.993200e-04 rev/day^2
Epoch rev: 359

Satellite: OBJECT NC
Catalog number: 42913
Epoch time: 17252.832954
Element set: 999
Inclination: 51.639400 deg
RA of node: 336.172100 deg
Eccentricity: 0.000553
Arg of perigee: 274.641000 deg
Mean anomaly: 85.395000 deg
Mean motion: 15.559364 rev/day
Decay rate: 5.012400e-04 rev/day^2
Epoch rev: 357

Satellite: OBJECT ND
Catalog number: 42914
Epoch time: 17252.579316
Element set: 999
Inclination: 51.640400 deg
RA of node: 337.481600 deg
Eccentricity: 0.000594
Arg of perigee: 250.769700 deg
Mean anomaly: 109.265300 deg
Mean motion: 15.554521 rev/day
Decay rate: 3.273000e-04 rev/day^2
Epoch rev: 35

