BIRD-N
1 42824U 98067MY  17252.60471210  .00038479  00000-0  53662-3 0  9994
2 42824 051.6409 336.9037 0005594 226.4891 133.5636 15.56500931009992
TechnoSat
1 42829U 17042E   17252.59384939  .00000887  00000-0  95819-4 0  9995
2 42829 097.6089 160.2352 0015690 055.9094 304.3611 14.90661585008526
Mayak
1 42830U 17042F   17252.79332900  .00003448  00000-0  35553-3 0  9994
2 42830  97.6090 160.4362 0016054  52.5016 307.7660 14.90759749  8559
OBJECT MZ
1 42910U 98067MZ  17252.44720551  .00031682  00000-0  45671-3 0  9997
2 42910  51.6392 338.0966 0007083 247.7565 112.2675 15.55688853  3554
OBJECT NA
1 42911U 98067NA  17252.57634453  .00036194  00000-0  52049-3 0  9997
2 42911 051.6410 337.4632 0006523 243.8337 116.1984 15.55691742003558
OBJECT NB
1 42912U 98067NB  17252.70680031  .00029932  00000-0  43483-3 0  9990
2 42912  51.6377 336.8248 0006173 258.8293 101.2004 15.55515467  3596
OBJECT NC
1 42913U 98067NC  17252.83295406  .00050124  00000-0  71061-3 0  9993
2 42913  51.6394 336.1721 0005529 274.6410  85.3950 15.55936406  3576
OBJECT ND
1 42914U 98067ND  17252.57931566  .00032730  00000-0  47579-3 0  9999
2 42914 051.6404 337.4816 0005936 250.7697 109.2653 15.55452127003548
